STARLINK-36145          
1 66983U 25288AA  25364.91670139 -.00285503  00000+0 -50116-2 0  9992
2 66983  43.0011  57.4028 0001411 268.1533 151.9801 15.50738079  4750
STARLINK-35591          
1 66984U 25288AB  25364.91670139 -.00306491  00000+0 -53956-2 0  9998
2 66984  43.0012  57.4076 0001692 266.7011 151.4783 15.50732563  4757
STARLINK-36103          
1 66985U 25288AC  25364.91670139 -.00322741  00000+0 -56968-2 0  9991
2 66985  43.0013  57.3981 0001630 274.7056 147.3139 15.50717522  4750
STARLINK-36135          
1 66986U 25288AD  25364.91670139 -.00222779  00000+0 -38832-2 0  9992
2 66986  43.0012  57.3924 0001641 277.7117 146.2196 15.50703072  4756
STARLINK-36147          
1 66987U 25288AE  25364.91670139 -.00151907  00000+0 -26273-2 0  9993
2 66987  43.0011  57.3886 0001254 259.6062 166.2495 15.50650708  4752
YAOGAN-47               
1 66988U 25289A   25362.17815560  .00004855  00000+0  20730-3 0  9990
2 66988  97.5253  67.3364 0000855 117.9958 242.1365 15.23366104  2890
CZ-4B R/B               
1 66989U 25289B   25364.75439329  .00159756  98388-5  70402-3 0  9996
2 66989  97.5226  71.4476 0135140 294.5200  64.2022 15.71912039  3395
TJS-22                  
1 66990U 25290A   25364.33388617  .00000015  00000+0  00000+0 0  9991
2 66990   1.9443 285.0492 0003334 344.5738  16.0538  1.00272328   334
CZ-3B R/B               
1 66991U 25290B   25349.72468800  .00057911 -20514-6  75879-3 0  9998
2 66991  28.4636 300.4666 7240884 182.7002 168.6250  2.38388611   165
2025-292A               
1 66993U 25292A   25364.89658647  .00009292  00000+0  66307-3 0  9992
2 66993  97.6500  77.2694 0015035 208.2101 151.8312 15.04664412  3125
2025-292B               
1 66994U 25292B   25364.89594001  .00010342  00000+0  73633-3 0  9994
2 66994  97.6511  77.2725 0014834 208.4779 151.5638 15.04722303  3124
2025-292C               
1 66995U 25292C   25364.89613109  .00011372  00000+0  81107-3 0  9995
2 66995  97.6501  77.2699 0015000 206.6797 153.3659 15.04629449  3120
